STARLINK-37922          
1 69971U 26157AE  26200.58335648 -.00013204  00000+0 -63475-4 0  9995
2 69971  53.1591 273.3966 0001285  64.9041  35.0022 15.80866197  2863
CHUANG XIN 26 (CX-26)   
1 69972U 26158A   26200.61500191 -.00000085  00000+0  31568-4 0  9998
2 69972  49.9833 261.7658 0004929 314.6012  45.4498 14.25124094  1330
STARLINK-38024          
1 69975U 26159A   26200.58335648 -.01185052  00000+0 -66517-2 0  9991
2 69975  97.2851  39.5058 0001471  76.3855  16.8248 15.81731846  2552
STARLINK-37993          
1 69976U 26159B   26200.58335648 -.01621198  00000+0 -90686-2 0  9992
2 69976  97.2852  39.5073 0001740  77.9575  19.0997 15.82230596  2559
STARLINK-37995          
1 69977U 26159C   26200.58335648 -.01975783  00000+0 -10844-1 0  9992
2 69977  97.2851  39.5096 0001933  64.5786  36.2447 15.82743731  2555
STARLINK-38057          
1 69978U 26159D   26200.58335648 -.01588613  00000+0 -86223-2 0  9990
2 69978  97.2851  39.5108 0001739  66.7787  37.8695 15.82808784  2551
STARLINK-38063          
1 69979U 26159E   26200.58335648 -.01884512  00000+0 -10069-1 0  9992
2 69979  97.2850  39.5115 0001983  64.2294  44.1426 15.83161882  2551
STARLINK-38093          
1 69980U 26159F   26200.58335648 -.01615184  00000+0 -85872-2 0  9996
2 69980  97.2848  39.5132 0001597  58.2324  53.8624 15.83297692  2553
STARLINK-38050          
1 69981U 26159G   26200.58335648 -.01656777  00000+0 -87240-2 0  9991
2 69981  97.2852  39.5141 0001884  65.4693  50.2173 15.83575353  2550
STARLINK-38065          
1 69982U 26159H   26200.58335648 -.01663215  00000+0 -86605-2 0  9991
2 69982  97.2853  39.5156 0001859  70.2670  48.9937 15.83822282  2557
STARLINK-38077          
1 69983U 26159J   26200.58335648 -.01650244  00000+0 -84892-2 0  9996
2 69983  97.2855  39.5171 0001681  67.7211  55.0597 15.84054376  2555
STARLINK-38068          
1 69984U 26159K   26200.58335648 -.01622138  00000+0 -82268-2 0  9993
2 69984  97.2853  39.5186 0001876  63.6887  62.4734 15.84295838  2555
STARLINK-38089          
1 69985U 26159L   26200.58335648 -.01625000  00000+0 -81561-2 0  9990
2 69985  97.2854  39.5200 0001808  66.8239  62.7965 15.84518572  2557
STARLINK-38073          
1 69986U 26159M   26200.58335648 -.01606150  00000+0 -79630-2 0  9990
2 69986  97.2854  39.5213 0001842  73.1300  59.8432 15.84738650  2557
STARLINK-38099          
1 69987U 26159N   26200.58335648 -.01594316  00000+0 -78104-2 0  9996
2 69987  97.2855  39.5226 0001769  64.6685  71.5687 15.84965770  2550
STARLINK-38064          
1 69988U 26159P   26200.58335648 -.01586224  00000+0 -76051-2 0  9995
2 69988  97.2858  39.5253 0001756  68.5025  74.2461 15.85396442  2556
STARLINK-38080          
1 69989U 26159Q   26200.58335648 -.01584298  00000+0 -76764-2 0  9996
2 69989  97.2855  39.5242 0001706  67.8608  71.6705 15.85175713  2554
STARLINK-38070          
1 69990U 26159R   26200.58335648 -.01569943  00000+0 -74459-2 0  9997
2 69990  97.2856  39.5267 0001732  69.0932  76.8941 15.85590562  2559
STARLINK-38042          
1 69991U 26159S   26200.58335648 -.01556497  00000+0 -72951-2 0  9993
2 69991  97.2855  39.5279 0001758  69.5812  79.4380 15.85810008  2558
STARLINK-38071          
1 69992U 26159T   26200.58335648 -.01556021  00000+0 -72159-2 0  9997
2 69992  97.2858  39.5293 0001812  70.4712  81.5794 15.86026111  2557
STARLINK-38082          
1 69993U 26159U   26200.58335648 -.01535634  00000+0 -70415-2 0  9998
2 69993  97.2859  39.5305 0001655  70.7390  84.3286 15.86222579  2556
STARLINK-38090          
1 69994U 26159V   26200.58335648 -.01536142  00000+0 -69748-2 0  9991
2 69994  97.2861  39.5319 0001738  72.0587  86.0198 15.86423848  2553
STARLINK-38084          
1 69995U 26159W   26200.58335648 -.01491847  00000+0 -68468-2 0  9992
2 69995  97.2861  39.5334 0001674  69.5454  91.6058 15.86602969  2554
STARLINK-38085          
1 69996U 26159X   26200.58335648 -.01483054  00000+0 -67336-2 0  9997
2 69996  97.2860  39.5348 0001691  70.5746  93.4362 15.86801804  2551
STARLINK-38091          
1 69997U 26159Y   26200.58335648 -.01480183  00000+0 -66588-2 0  9996
2 69997  97.2864  39.5358 0001751  70.9047  96.0985 15.86981636  2554
STARLINK-38086          
1 69998U 26159Z   26200.58335648 -.01466947  00000+0 -65320-2 0  9992
2 69998  97.2863  39.5372 0001646  71.4055  98.4805 15.87161799  2556
