OBJECT_NAME,OBJECT_ID,EPOCH,MEAN_MOTION,ECCENTRICITY,INCLINATION,RA_OF_ASC_NODE,ARG_OF_PERICENTER,MEAN_ANOMALY,EPHEMERIS_TYPE,CLASSIFICATION_TYPE,NORAD_CAT_ID,ELEMENT_SET_NO,REV_AT_EPOCH,BSTAR,MEAN_MOTION_DOT,MEAN_MOTION_DDOT
STARLINK-37922,2026-157AE,2026-07-19T14:00:01.999872,15.80866197,.00012851,53.1591,273.3966,64.9041,35.0022,0,U,69971,999,286,-.63475111E-4,-.13204E-3,0
CHUANG XIN 26 (CX-26),2026-158A,2026-07-19T14:45:36.165024,14.25124094,.00049298,49.9833,261.7658,314.6012,45.4498,0,U,69972,999,133,.31568195E-4,-.85E-6,0
STARLINK-38024,2026-159A,2026-07-19T14:00:01.999872,15.81731846,.0001471,97.2851,39.5058,76.3855,16.8248,0,U,69975,999,255,-.66516593E-2,-.1185052E-1,0
STARLINK-37993,2026-159B,2026-07-19T14:00:01.999872,15.82230596,.00017401,97.2852,39.5073,77.9575,19.0997,0,U,69976,999,255,-.90685726E-2,-.1621198E-1,0
STARLINK-37995,2026-159C,2026-07-19T14:00:01.999872,15.82743731,.00019337,97.2851,39.5096,64.5786,36.2447,0,U,69977,999,255,-.10844298E-1,-.1975783E-1,0
STARLINK-38057,2026-159D,2026-07-19T14:00:01.999872,15.82808784,.0001739,97.2851,39.5108,66.7787,37.8695,0,U,69978,999,255,-.86223122E-2,-.1588613E-1,0
STARLINK-38063,2026-159E,2026-07-19T14:00:01.999872,15.83161882,.00019834,97.2850,39.5115,64.2294,44.1426,0,U,69979,999,255,-.10069292E-1,-.1884512E-1,0
STARLINK-38093,2026-159F,2026-07-19T14:00:01.999872,15.83297692,.00015977,97.2848,39.5132,58.2324,53.8624,0,U,69980,999,255,-.85871775E-2,-.1615184E-1,0
STARLINK-38050,2026-159G,2026-07-19T14:00:01.999872,15.83575353,.0001884,97.2852,39.5141,65.4693,50.2173,0,U,69981,999,255,-.87239512E-2,-.1656777E-1,0
STARLINK-38065,2026-159H,2026-07-19T14:00:01.999872,15.83822282,.00018597,97.2853,39.5156,70.2670,48.9937,0,U,69982,999,255,-.86605408E-2,-.1663215E-1,0
STARLINK-38077,2026-159J,2026-07-19T14:00:01.999872,15.84054376,.00016818,97.2855,39.5171,67.7211,55.0597,0,U,69983,999,255,-.84891903E-2,-.1650244E-1,0
STARLINK-38068,2026-159K,2026-07-19T14:00:01.999872,15.84295838,.00018767,97.2853,39.5186,63.6887,62.4734,0,U,69984,999,255,-.82267724E-2,-.1622138E-1,0
STARLINK-38089,2026-159L,2026-07-19T14:00:01.999872,15.84518572,.00018089,97.2854,39.5200,66.8239,62.7965,0,U,69985,999,255,-.81560687E-2,-.1625E-1,0
STARLINK-38073,2026-159M,2026-07-19T14:00:01.999872,15.84738650,.00018429,97.2854,39.5213,73.1300,59.8432,0,U,69986,999,255,-.79629686E-2,-.160615E-1,0
STARLINK-38099,2026-159N,2026-07-19T14:00:01.999872,15.84965770,.00017693,97.2855,39.5226,64.6685,71.5687,0,U,69987,999,255,-.78103611E-2,-.1594316E-1,0
STARLINK-38064,2026-159P,2026-07-19T14:00:01.999872,15.85396442,.0001756,97.2858,39.5253,68.5025,74.2461,0,U,69988,999,255,-.7605096E-2,-.1586224E-1,0
STARLINK-38080,2026-159Q,2026-07-19T14:00:01.999872,15.85175713,.00017067,97.2855,39.5242,67.8608,71.6705,0,U,69989,999,255,-.76764404E-2,-.1584298E-1,0
STARLINK-38070,2026-159R,2026-07-19T14:00:01.999872,15.85590562,.00017323,97.2856,39.5267,69.0932,76.8941,0,U,69990,999,255,-.74459034E-2,-.1569943E-1,0
STARLINK-38042,2026-159S,2026-07-19T14:00:01.999872,15.85810008,.00017589,97.2855,39.5279,69.5812,79.4380,0,U,69991,999,255,-.72950644E-2,-.1556497E-1,0
STARLINK-38071,2026-159T,2026-07-19T14:00:01.999872,15.86026111,.00018121,97.2858,39.5293,70.4712,81.5794,0,U,69992,999,255,-.72158789E-2,-.1556021E-1,0
STARLINK-38082,2026-159U,2026-07-19T14:00:01.999872,15.86222579,.00016556,97.2859,39.5305,70.7390,84.3286,0,U,69993,999,255,-.70415261E-2,-.1535634E-1,0
STARLINK-38090,2026-159V,2026-07-19T14:00:01.999872,15.86423848,.00017386,97.2861,39.5319,72.0587,86.0198,0,U,69994,999,255,-.69747654E-2,-.1536142E-1,0
STARLINK-38084,2026-159W,2026-07-19T14:00:01.999872,15.86602969,.00016748,97.2861,39.5334,69.5454,91.6058,0,U,69995,999,255,-.68467786E-2,-.1491847E-1,0
STARLINK-38085,2026-159X,2026-07-19T14:00:01.999872,15.86801804,.00016918,97.2860,39.5348,70.5746,93.4362,0,U,69996,999,255,-.67336112E-2,-.1483054E-1,0
STARLINK-38091,2026-159Y,2026-07-19T14:00:01.999872,15.86981636,.00017512,97.2864,39.5358,70.9047,96.0985,0,U,69997,999,255,-.66588472E-2,-.1480183E-1,0
STARLINK-38086,2026-159Z,2026-07-19T14:00:01.999872,15.87161799,.00016465,97.2863,39.5372,71.4055,98.4805,0,U,69998,999,255,-.65320007E-2,-.1466947E-1,0
